[{"OBJECT_NAME":"SCD 1","OBJECT_ID":"1993-009B","EPOCH":"2026-03-15T07:14:49.249824","MEAN_MOTION":14.46071565,"ECCENTRICITY":0.00417651,"INCLINATION":24.9697,"RA_OF_ASC_NODE":67.2396,"ARG_OF_PERICENTER":224.0481,"MEAN_ANOMALY":158.7193,"EPHEMERIS_TYPE":0,"CLASSIFICATION_TYPE":"U","NORAD_CAT_ID":22490,"ELEMENT_SET_NO":999,"REV_AT_EPOCH":74751,"BSTAR":7.8123361e-5,"MEAN_MOTION_DOT":4.73e-6,"MEAN_MOTION_DDOT":0},{"OBJECT_NAME":"TECHSAT 1B (GO-32)","OBJECT_ID":"1998-043D","EPOCH":"2026-03-15T05:15:31.554144","MEAN_MOTION":14.24407785,"ECCENTRICITY":0.00022065,"INCLINATION":99.0031,"RA_OF_ASC_NODE":64.6273,"ARG_OF_PERICENTER":110.6069,"MEAN_ANOMALY":249.5346,"EPHEMERIS_TYPE":0,"CLASSIFICATION_TYPE":"U","NORAD_CAT_ID":25397,"ELEMENT_SET_NO":999,"REV_AT_EPOCH":43795,"BSTAR":5.921555e-5,"MEAN_MOTION_DOT":9.0e-7,"MEAN_MOTION_DDOT":0},{"OBJECT_NAME":"SCD 2","OBJECT_ID":"1998-060A","EPOCH":"2026-03-15T06:58:57.593568","MEAN_MOTION":14.45485977,"ECCENTRICITY":0.00166606,"INCLINATION":24.9955,"RA_OF_ASC_NODE":291.2028,"ARG_OF_PERICENTER":210.3788,"MEAN_ANOMALY":311.2324,"EPHEMERIS_TYPE":0,"CLASSIFICATION_TYPE":"U","NORAD_CAT_ID":25504,"ELEMENT_SET_NO":999,"REV_AT_EPOCH":44672,"BSTAR":6.6127192e-5,"MEAN_MOTION_DOT":4.19e-6,"MEAN_MOTION_DDOT":0},{"OBJECT_NAME":"DLR-TUBSAT","OBJECT_ID":"1999-029B","EPOCH":"2026-03-15T06:10:28.197120","MEAN_MOTION":14.52400078,"ECCENTRICITY":0.00130253,"INCLINATION":98.6669,"RA_OF_ASC_NODE":66.6869,"ARG_OF_PERICENTER":276.4385,"MEAN_ANOMALY":83.5326,"EPHEMERIS_TYPE":0,"CLASSIFICATION_TYPE":"U","NORAD_CAT_ID":25757,"ELEMENT_SET_NO":999,"REV_AT_EPOCH":41961,"BSTAR":4.6797038e-5,"MEAN_MOTION_DOT":1.42e-6,"MEAN_MOTION_DDOT":0},{"OBJECT_NAME":"TERRA","OBJECT_ID":"1999-068A","EPOCH":"2026-03-15T06:19:25.401216","MEAN_MOTION":14.61021128,"ECCENTRICITY":0.00030404,"INCLINATION":97.9582,"RA_OF_ASC_NODE":127.485,"ARG_OF_PERICENTER":139.1395,"MEAN_ANOMALY":286.4754,"EPHEMERIS_TYPE":0,"CLASSIFICATION_TYPE":"U","NORAD_CAT_ID":25994,"ELEMENT_SET_NO":999,"REV_AT_EPOCH":39589,"BSTAR":0.0001033874,"MEAN_MOTION_DOT":4.63e-6,"MEAN_MOTION_DDOT":0},{"OBJECT_NAME":"MAROC-TUBSAT","OBJECT_ID":"2001-056D","EPOCH":"2026-03-15T06:31:40.289376","MEAN_MOTION":13.70258298,"ECCENTRICITY":0.00201138,"INCLINATION":99.8018,"RA_OF_ASC_NODE":249.374,"ARG_OF_PERICENTER":25.6072,"MEAN_ANOMALY":151.0577,"EPHEMERIS_TYPE":0,"CLASSIFICATION_TYPE":"U","NORAD_CAT_ID":27004,"ELEMENT_SET_NO":999,"REV_AT_EPOCH":21332,"BSTAR":4.4356493e-5,"MEAN_MOTION_DOT":-7.0e-8,"MEAN_MOTION_DDOT":0},{"OBJECT_NAME":"AQUA","OBJECT_ID":"2002-022A","EPOCH":"2026-03-15T07:19:50.087712","MEAN_MOTION":14.61991517,"ECCENTRICITY":6.32e-5,"INCLINATION":98.4183,"RA_OF_ASC_NODE":41.773,"ARG_OF_PERICENTER":102.4511,"MEAN_ANOMALY":4.713,"EPHEMERIS_TYPE":0,"CLASSIFICATION_TYPE":"U","NORAD_CAT_ID":27424,"ELEMENT_SET_NO":999,"REV_AT_EPOCH":26955,"BSTAR":0.00023099495,"MEAN_MOTION_DOT":1.109e-5,"MEAN_MOTION_DDOT":0},{"OBJECT_NAME":"IRS-P6 (RESOURCESAT-1)","OBJECT_ID":"2003-046A","EPOCH":"2026-03-15T07:47:03.416640","MEAN_MOTION":14.36121113,"ECCENTRICITY":0.00628811,"INCLINATION":98.2042,"RA_OF_ASC_NODE":115.385,"ARG_OF_PERICENTER":263.8927,"MEAN_ANOMALY":225.3975,"EPHEMERIS_TYPE":0,"CLASSIFICATION_TYPE":"U","NORAD_CAT_ID":28051,"ELEMENT_SET_NO":999,"REV_AT_EPOCH":16705,"BSTAR":0.00011745915,"MEAN_MOTION_DOT":3.08e-6,"MEAN_MOTION_DDOT":0},{"OBJECT_NAME":"SHIYAN-1 (SY-1)","OBJECT_ID":"2004-012A","EPOCH":"2026-03-15T03:51:29.900736","MEAN_MOTION":15.31231197,"ECCENTRICITY":0.00053549,"INCLINATION":97.8766,"RA_OF_ASC_NODE":146.2837,"ARG_OF_PERICENTER":4.0279,"MEAN_ANOMALY":356.1003,"EPHEMERIS_TYPE":0,"CLASSIFICATION_TYPE":"U","NORAD_CAT_ID":28220,"ELEMENT_SET_NO":999,"REV_AT_EPOCH":19669,"BSTAR":0.00060177117,"MEAN_MOTION_DOT":0.000181,"MEAN_MOTION_DDOT":0},{"OBJECT_NAME":"AURA","OBJECT_ID":"2004-026A","EPOCH":"2026-03-15T05:51:08.463744","MEAN_MOTION":14.61163333,"ECCENTRICITY":0.0001098,"INCLINATION":98.3318,"RA_OF_ASC_NODE":29.983,"ARG_OF_PERICENTER":89.1472,"MEAN_ANOMALY":270.9854,"EPHEMERIS_TYPE":0,"CLASSIFICATION_TYPE":"U","NORAD_CAT_ID":28376,"ELEMENT_SET_NO":999,"REV_AT_EPOCH":15249,"BSTAR":0.00022938784,"MEAN_MOTION_DOT":1.081e-5,"MEAN_MOTION_DDOT":0},{"OBJECT_NAME":"IRS-P5 (CARTOSAT-1)","OBJECT_ID":"2005-017A","EPOCH":"2026-03-15T07:40:28.415712","MEAN_MOTION":14.90786691,"ECCENTRICITY":0.00021327,"INCLINATION":97.541,"RA_OF_ASC_NODE":101.6159,"ARG_OF_PERICENTER":62.5745,"MEAN_ANOMALY":297.569,"EPHEMERIS_TYPE":0,"CLASSIFICATION_TYPE":"U","NORAD_CAT_ID":28649,"ELEMENT_SET_NO":999,"REV_AT_EPOCH":12983,"BSTAR":0.00015729139,"MEAN_MOTION_DOT":1.494e-5,"MEAN_MOTION_DDOT":0},{"OBJECT_NAME":"SINAH 1","OBJECT_ID":"2005-043D","EPOCH":"2026-03-15T06:58:16.795488","MEAN_MOTION":14.64080316,"ECCENTRICITY":0.00139738,"INCLINATION":98.2693,"RA_OF_ASC_NODE":208.1429,"ARG_OF_PERICENTER":205.9543,"MEAN_ANOMALY":154.0959,"EPHEMERIS_TYPE":0,"CLASSIFICATION_TYPE":"U","NORAD_CAT_ID":28893,"ELEMENT_SET_NO":999,"REV_AT_EPOCH":8678,"BSTAR":0.00010235905,"MEAN_MOTION_DOT":4.89e-6,"MEAN_MOTION_DDOT":0},{"OBJECT_NAME":"RESURS-DK 1","OBJECT_ID":"2006-021A","EPOCH":"2026-03-15T03:44:31.750656","MEAN_MOTION":15.1278846,"ECCENTRICITY":0.00013085,"INCLINATION":69.9324,"RA_OF_ASC_NODE":222.882,"ARG_OF_PERICENTER":155.3382,"MEAN_ANOMALY":204.7847,"EPHEMERIS_TYPE":0,"CLASSIFICATION_TYPE":"U","NORAD_CAT_ID":29228,"ELEMENT_SET_NO":999,"REV_AT_EPOCH":8835,"BSTAR":0.00023516784,"MEAN_MOTION_DOT":4.031e-5,"MEAN_MOTION_DDOT":0},{"OBJECT_NAME":"ARIRANG-2 (KOMPSAT-2)","OBJECT_ID":"2006-031A","EPOCH":"2026-03-15T07:24:50.661216","MEAN_MOTION":14.64593338,"ECCENTRICITY":0.00148638,"INCLINATION":97.8308,"RA_OF_ASC_NODE":263.2909,"ARG_OF_PERICENTER":16.9627,"MEAN_ANOMALY":156.5961,"EPHEMERIS_TYPE":0,"CLASSIFICATION_TYPE":"U","NORAD_CAT_ID":29268,"ELEMENT_SET_NO":999,"REV_AT_EPOCH":4773,"BSTAR":4.73866e-5,"MEAN_MOTION_DOT":2.07e-6,"MEAN_MOTION_DDOT":0},{"OBJECT_NAME":"LAPAN-TUBSAT","OBJECT_ID":"2007-001A","EPOCH":"2026-03-15T05:56:11.064192","MEAN_MOTION":14.85838825,"ECCENTRICITY":0.001316,"INCLINATION":98.134,"RA_OF_ASC_NODE":71.3689,"ARG_OF_PERICENTER":127.024,"MEAN_ANOMALY":233.2181,"EPHEMERIS_TYPE":0,"CLASSIFICATION_TYPE":"U","NORAD_CAT_ID":29709,"ELEMENT_SET_NO":999,"REV_AT_EPOCH":3720,"BSTAR":3.4476411e-5,"MEAN_MOTION_DOT":2.43e-6,"MEAN_MOTION_DDOT":0},{"OBJECT_NAME":"HAIYANG-1B","OBJECT_ID":"2007-010A","EPOCH":"2026-03-15T05:47:31.586784","MEAN_MOTION":14.31001418,"ECCENTRICITY":0.00145619,"INCLINATION":98.3433,"RA_OF_ASC_NODE":59.7621,"ARG_OF_PERICENTER":117.2452,"MEAN_ANOMALY":243.0218,"EPHEMERIS_TYPE":0,"CLASSIFICATION_TYPE":"U","NORAD_CAT_ID":31113,"ELEMENT_SET_NO":999,"REV_AT_EPOCH":98719,"BSTAR":6.1829243e-5,"MEAN_MOTION_DOT":1.21e-6,"MEAN_MOTION_DDOT":0},{"OBJECT_NAME":"COSMO-SKYMED 1","OBJECT_ID":"2007-023A","EPOCH":"2026-03-15T06:44:22.581888","MEAN_MOTION":14.9658773,"ECCENTRICITY":0.00016153,"INCLINATION":97.8883,"RA_OF_ASC_NODE":265.3581,"ARG_OF_PERICENTER":94.0965,"MEAN_ANOMALY":266.0441,"EPHEMERIS_TYPE":0,"CLASSIFICATION_TYPE":"U","NORAD_CAT_ID":31598,"ELEMENT_SET_NO":999,"REV_AT_EPOCH":1574,"BSTAR":0.00043552556,"MEAN_MOTION_DOT":4.9e-5,"MEAN_MOTION_DDOT":0}]
