SCD 1                   
1 22490U 93009B   26074.30195891  .00000473  00000+0  78123-4 0  9991
2 22490  24.9697  67.2396 0041765 224.0481 158.7193 14.46071565747510
TECHSAT 1B (GO-32)      
1 25397U 98043D   26074.21911521  .00000090  00000+0  59216-4 0  9996
2 25397  99.0031  64.6273 0002206 110.6069 249.5346 14.24407785437954
SCD 2                   
1 25504U 98060A   26074.29094437  .00000419  00000+0  66127-4 0  9995
2 25504  24.9955 291.2028 0016660 210.3788 311.2324 14.45485977446727
DLR-TUBSAT              
1 25757U 99029B   26074.25727080  .00000142  00000+0  46797-4 0  9998
2 25757  98.6669  66.6869 0013025 276.4385  83.5326 14.52400078419618
TERRA                   
1 25994U 99068A   26074.26348844  .00000463  00000+0  10339-3 0  9990
2 25994  97.9582 127.4850 0003040 139.1395 286.4754 14.61021128395892
MAROC-TUBSAT            
1 27004U 01056D   26074.27199409 -.00000007  00000+0  44356-4 0  9998
2 27004  99.8018 249.3740 0020113  25.6072 151.0577 13.70258298213320
AQUA                    
1 27424U 02022A   26074.30544083  .00001109  00000+0  23099-3 0  9997
2 27424  98.4183  41.7730 0000632 102.4511   4.7130 14.61991517269557
IRS-P6 (RESOURCESAT-1)  
1 28051U 03046A   26074.32434510  .00000308  00000+0  11746-3 0  9992
2 28051  98.2042 115.3850 0062881 263.8927 225.3975 14.36121113167053
SHIYAN-1 (SY-1)         
1 28220U 04012A   26074.16076274  .00018100  00000+0  60177-3 0  9996
2 28220  97.8766 146.2837 0005354   4.0279 356.1003 15.31231197196691
AURA                    
1 28376U 04026A   26074.24384796  .00001081  00000+0  22939-3 0  9997
2 28376  98.3318  29.9830 0001098  89.1472 270.9854 14.61163333152497
IRS-P5 (CARTOSAT-1)     
1 28649U 05017A   26074.31977333  .00001494  00000+0  15729-3 0  9991
2 28649  97.5410 101.6159 0002132  62.5745 297.5690 14.90786691129839
SINAH 1                 
1 28893U 05043D   26074.29047217  .00000489  00000+0  10236-3 0  9998
2 28893  98.2693 208.1429 0013973 205.9543 154.0959 14.64080316 86781
RESURS-DK 1             
1 29228U 06021A   26074.15592304  .00004031  00000+0  23517-3 0  9998
2 29228  69.9324 222.8820 0001308 155.3382 204.7847 15.12788460 88359
ARIRANG-2 (KOMPSAT-2)   
1 29268U 06031A   26074.30891969  .00000207  00000+0  47387-4 0  9992
2 29268  97.8308 263.2909 0014863  16.9627 156.5961 14.64593338 47738
LAPAN-TUBSAT            
1 29709U 07001A   26074.24735028  .00000243  00000+0  34476-4 0  9991
2 29709  98.1340  71.3689 0013160 127.0240 233.2181 14.85838825 37209
HAIYANG-1B              
1 31113U 07010A   26074.24133781  .00000121  00000+0  61829-4 0  9998
2 31113  98.3433  59.7621 0014561 117.2452 243.0218 14.31001418987197
COSMO-SKYMED 1          
1 31598U 07023A   26074.28081692  .00004900  00000+0  43553-3 0  9998
2 31598  97.8883 265.3581 0001615  94.0965 266.0441 14.96587730 15747
